OBJECT_NAME,OBJECT_ID,EPOCH,MEAN_MOTION,ECCENTRICITY,INCLINATION,RA_OF_ASC_NODE,ARG_OF_PERICENTER,MEAN_ANOMALY,EPHEMERIS_TYPE,CLASSIFICATION_TYPE,NORAD_CAT_ID,ELEMENT_SET_NO,REV_AT_EPOCH,BSTAR,MEAN_MOTION_DOT,MEAN_MOTION_DDOT
SYRACUSE 4B,2023-093B,2026-06-27T01:41:38.729760,1.00268400,.00004568,0.0057,99.0122,61.9682,133.1490,0,U,57214,999,706,0,-.43E-6,0
JUPITER 3 (ECHOSTAR 24),2023-108A,2026-06-26T12:02:24.719136,1.00270074,.00011349,0.0219,14.5603,76.3986,269.0541,0,U,57479,999,1074,0,0,0
GALAXY 37 (G-37),2023-112A,2026-06-27T05:03:36.163008,1.00272000,.00022562,0.0160,54.5707,38.7838,130.8704,0,U,57493,999,1064,0,.6E-6,0
LUDI TANCE-4 01A,2023-120A,2026-06-27T00:57:19.882944,1.00267837,.0001333,15.0930,193.7182,21.6649,163.6860,0,U,57624,999,1064,0,-.153E-5,0
TJS-10,2023-169A,2026-06-26T17:27:20.223360,1.00271833,.0003937,2.5688,80.3883,103.3566,85.3876,0,U,58204,999,963,0,-.24E-5,0
ZHONGXING-6E,2023-172A,2026-06-26T09:40:49.550592,1.00275723,.000259,0.0365,262.4496,192.6137,80.1597,0,U,58253,999,975,0,-.35E-5,0
YAOGAN-41,2023-197A,2026-06-27T01:06:48.973824,1.00276579,.00141814,3.1105,313.2960,195.3927,266.3233,0,U,58582,999,942,0,-.347E-5,0
OVZON-3,2024-003A,2026-06-27T04:14:09.821184,1.00270177,.00002546,0.0149,37.4258,18.2289,342.8653,0,U,58698,999,754,0,0,0
INSAT-3DS,2024-033A,2026-06-27T00:55:12.586368,1.00270639,.00014728,0.0617,100.5111,345.6436,284.8739,0,U,58990,999,4716,0,-.144E-5,0
MERAH PUTIH 2,2024-035A,2026-06-27T00:49:38.733312,1.00273140,.00014325,0.0142,61.0433,34.7585,304.7126,0,U,58995,999,868,0,-.346E-5,0
TJS-11,2024-037A,2026-06-26T21:38:34.901376,1.00271807,.0003535,4.1863,327.2062,109.8536,275.2694,0,U,59020,999,868,0,-.35E-5,0
HULIANWAN GAOGUI-01 (HG-01),2024-040A,2026-06-27T04:06:40.537728,1.00271074,.00029885,0.0708,330.0872,73.1291,327.3174,0,U,59069,999,742,0,.168E-5,0
EUTELSAT 36D,2024-059A,2026-06-27T04:07:17.979168,1.00265217,.00001717,0.0242,19.2305,50.2040,303.5166,0,U,59346,999,824,0,0,0
PAKSAT-MM1,2024-104A,2026-06-27T04:07:55.418880,1.00272758,.00027835,0.0458,215.6404,216.5323,303.2497,0,U,59915,999,762,0,.165E-5,0
ASTRA 1P (SES-24),2024-115A,2026-06-27T02:19:56.693280,1.00264029,.0000558,0.0551,341.5480,283.0699,64.7788,0,U,60086,999,729,0,.131E-5,0
GOES 19,2024-119A,2026-06-27T04:33:38.624832,1.00271191,.00005572,0.0076,91.7909,49.8217,126.9075,0,U,60133,999,706,0,-.237E-5,0
ZHONGXING-3A,2024-122A,2026-06-26T07:54:12.065184,1.00272295,.0001532,0.0422,126.7500,356.6470,11.1904,0,U,60179,999,740,0,-.302E-5,0
TURKSAT 6A,2024-127A,2026-06-27T02:26:26.071296,1.00273646,.00027361,0.0588,212.2486,288.0405,213.5719,0,U,60233,999,711,0,.158E-5,0
HULIANWAN GAOGUI-02 (HG-02),2024-135A,2026-06-26T23:32:51.493920,1.00269273,.00074876,0.0436,354.3395,16.2160,50.8501,0,U,60327,999,759,0,-.162E-5,0
ZHONGXING-4A,2024-151A,2026-06-27T01:05:26.605248,1.00269223,.00005586,1.2892,270.6980,212.2177,286.8137,0,U,60606,999,685,0,-.349E-5,0
HULIANWAN GAOGUI-03 (HG-03),2024-181A,2026-06-27T05:17:46.543776,1.00274533,.00015136,0.0467,357.7458,90.0159,189.8965,0,U,61503,999,692,0,-.23E-5,0
DSN-3 (KIRAMEKI-3),2024-198A,2026-06-27T04:38:08.829600,1.00273672,.00009707,0.0187,340.4410,120.5972,27.8501,0,U,61733,999,602,0,-.238E-5,0
KOREASAT 6A,2024-206A,2026-06-27T01:04:49.164672,1.00270160,.00009337,0.0171,27.3131,61.1334,318.9473,0,U,61910,999,593,0,0,0
OPTUS-X (ADS-01),2024-212A,2026-06-27T04:41:45.983040,1.00271977,.00022784,0.0187,8.7911,120.6911,12.6515,0,U,62006,999,586,0,-.132E-5,0
GSAT-N2 (GSAT-20),2024-214A,2026-06-27T02:33:47.864736,1.00272303,.00022287,0.0598,102.0884,344.6497,294.8683,0,U,62028,999,599,0,-.8E-7,0
SXM-9,2024-234A,2026-06-27T01:50:05.437248,1.00276794,.00049989,0.0142,341.9377,339.7234,255.8969,0,U,62259,999,567,0,-.194E-5,0
TJS-12,2024-246A,2026-06-26T21:48:18.967968,1.00275058,.00023991,0.6491,300.1136,103.1186,345.3750,0,U,62374,999,566,0,-.218E-5,0
NUVIEW ALPHA,2024-252B,2026-06-27T05:16:01.712064,1.00273290,.00013875,0.0504,31.0896,28.2754,211.8909,0,U,62455,999,392,0,-.204E-5,0
AGILA,2024-252C,2026-06-27T03:32:38.547168,1.00271579,.00016637,0.0646,123.8318,351.3857,5.3551,0,U,62456,999,526,0,-.17E-5,0
NUVIEW BRAVO,2024-252D,2026-06-27T05:16:01.712064,1.00272168,.00022116,0.0738,151.0962,332.0872,148.0602,0,U,62457,999,389,0,-.203E-5,0
THURAYA-4,2025-001A,2026-06-27T02:27:03.511008,1.00265535,.00001835,0.0222,65.4956,195.5265,95.2638,0,U,62483,999,427,0,.151E-5,0
SHIJIAN-25 (SJ-25),2025-002A,2026-06-26T18:00:52.119936,1.00279431,.0051249,5.1354,61.1092,174.7668,76.4681,0,U,62485,999,545,0,-.343E-5,0
